[{"OBJECT_NAME":"STARLINK-4574","OBJECT_ID":"2022-107AK","EPOCH":"2026-03-09T17:04:32.963232","MEAN_MOTION":15.08842757,"ECCENTRICITY":0.00013314,"INCLINATION":53.2165,"RA_OF_ASC_NODE":254.253,"ARG_OF_PERICENTER":83.4785,"MEAN_ANOMALY":276.6359,"EPHEMERIS_TYPE":0,"CLASSIFICATION_TYPE":"U","NORAD_CAT_ID":53733,"ELEMENT_SET_NO":999,"REV_AT_EPOCH":19458,"BSTAR":4.82419e-5,"MEAN_MOTION_DOT":4.8e-6,"MEAN_MOTION_DDOT":0},{"OBJECT_NAME":"LEMUR-2-KREMPEL-BRO1","OBJECT_ID":"2025-061G","EPOCH":"2026-03-09T22:19:45.751296","MEAN_MOTION":15.13773226,"ECCENTRICITY":0.0017497,"INCLINATION":97.5535,"RA_OF_ASC_NODE":45.5283,"ARG_OF_PERICENTER":227.946,"MEAN_ANOMALY":132.0284,"EPHEMERIS_TYPE":0,"CLASSIFICATION_TYPE":"U","NORAD_CAT_ID":63357,"ELEMENT_SET_NO":999,"REV_AT_EPOCH":5261,"BSTAR":0.00031891713,"MEAN_MOTION_DOT":5.707e-5,"MEAN_MOTION_DDOT":0}]
